{"fetched_at":"2026-07-14T17:40:32.115Z","source":"https://celestrak.org/NORAD/elements/gp.php?GROUP=stations&FORMAT=JSON","constellation":"tiangong","records":[{"OBJECT_NAME":"CSS (TIANHE)","OBJECT_ID":"2021-035A","EPOCH":"2026-07-14T04:32:42.641088","CLASSIFICATION_TYPE":"U","MEAN_MOTION":15.58062507,"ECCENTRICITY":0.0002447,"INCLINATION":41.469,"RA_OF_ASC_NODE":157.932,"ARG_OF_PERICENTER":303.4143,"MEAN_ANOMALY":56.646,"EPHEMERIS_TYPE":0,"NORAD_CAT_ID":48274,"ELEMENT_SET_NO":999,"REV_AT_EPOCH":29738,"BSTAR":0.000014292,"MEAN_MOTION_DOT":0.00000775,"MEAN_MOTION_DDOT":0}]}
